{"type": "FeatureCollection", "crs": {"type": "name", "properties": {"name": "urn:ogc:def:crs:EPSG::26910"}}, "features": [{"type": "Feature", "properties": {"id": "sw-01", "chainStartM": 0.0, "chainEndM": 20.0, "crestEstimateM": 3.11, "crestMinM": 2.91, "crestMaxM": 3.78, "source": "shoreline-2002-derived", "validationStatus": "derived", "crestSource": "Estimated from DEM (LiDAR 2013, CGVD28)"}, "geometry": {"type": "LineString", "coordinates": [[491784.34077287395, 5457637.481074959], [491785.16899984586, 5457637.69589633], [491788.5779998461, 5457638.80389633], [491790.62999984494, 5457639.600896328], [491793.95199984446, 5457640.621896331], [491795.74299984524, 5457641.0888963295], [491798.52699984534, 5457642.162896329], [491800.64799984515, 5457642.854896332], [491801.6229998456, 5457643.2708963305], [491803.30753518717, 5457643.770946291]]}}, {"type": "Feature", "properties": {"id": "sw-02", "chainStartM": 20.0, "chainEndM": 40.0, "crestEstimateM": 2.61, "crestMinM": 1.3, "crestMaxM": 3.91, "source": "shoreline-2002-derived", "validationStatus": "derived", "crestSource": "Estimated from DEM (LiDAR 2013, CGVD28)"}, "geometry": {"type": "LineString", "coordinates": [[491803.30753518717, 5457643.770946291], [491805.5879998461, 5457644.44789633], [491808.28399984544, 5457645.052896329], [491812.6839998455, 5457646.3158963295], [491814.8749998461, 5457646.833896331], [491817.51799984503, 5457647.247896329], [491820.87399984506, 5457647.851896331], [491822.7725286512, 5457648.269439321]]}}, {"type": "Feature", "properties": {"id": "sw-03", "chainStartM": 40.0, "chainEndM": 60.0, "crestEstimateM": 1.38, "crestMinM": 0.98, "crestMaxM": 1.75, "source": "shoreline-2002-derived", "validationStatus": "derived", "crestSource": "Estimated from DEM (LiDAR 2013, CGVD28)"}, "geometry": {"type": "LineString", "coordinates": [[491822.7725286512, 5457648.269439321], [491823.1519998465, 5457648.352896331], [491825.3089998457, 5457649.044896329], [491835.34399984527, 5457651.69089633], [491841.4829998464, 5457653.438896328], [491842.05401700264, 5457653.566867716]]}}, {"type": "Feature", "properties": {"id": "sw-04", "chainStartM": 60.0, "chainEndM": 80.0, "crestEstimateM": 2.07, "crestMinM": 1.75, "crestMaxM": 2.17, "source": "shoreline-2002-derived", "validationStatus": "derived", "crestSource": "Estimated from DEM (LiDAR 2013, CGVD28)"}, "geometry": {"type": "LineString", "coordinates": [[491842.05401700264, 5457653.566867716], [491844.7179998464, 5457654.16389633], [491848.178999846, 5457655.010896329], [491850.10899984563, 5457655.58289633], [491853.06599984725, 5457656.308896328], [491855.9699998468, 5457657.19089633], [491859.744999846, 5457658.454896331], [491861.1899897132, 5457659.215662959]]}}, {"type": "Feature", "properties": {"id": "sw-05", "chainStartM": 80.0, "chainEndM": 100.0, "crestEstimateM": 2.01, "crestMinM": 1.72, "crestMaxM": 2.38, "source": "shoreline-2002-derived", "validationStatus": "derived", "crestSource": "Estimated from DEM (LiDAR 2013, CGVD28)"}, "geometry": {"type": "LineString", "coordinates": [[491861.1899897132, 5457659.215662959], [491862.8409998473, 5457660.08489633], [491864.11199984676, 5457660.6918963315], [491865.4329998475, 5457661.14089633], [491867.9549998465, 5457661.850896329], [491870.96399984695, 5457662.45489633], [491872.61599984625, 5457662.67889633], [491875.0489998464, 5457662.710896329], [491875.77999984677, 5457662.77889633], [491880.51486899354, 5457663.607818788]]}}, {"type": "Feature", "properties": {"id": "sw-06", "chainStartM": 100.0, "chainEndM": 120.0, "crestEstimateM": 2.48, "crestMinM": 2.18, "crestMaxM": 2.79, "source": "shoreline-2002-derived", "validationStatus": "derived", "crestSource": "Estimated from DEM (LiDAR 2013, CGVD28)"}, "geometry": {"type": "LineString", "coordinates": [[491880.51486899354, 5457663.607818788], [491881.69199984666, 5457663.813896331], [491881.39799984684, 5457664.90989633], [491881.22599984787, 5457666.021896331], [491881.1079998471, 5457668.71689633], [491880.9879998469, 5457670.3338963315], [491880.7469998474, 5457672.0378963305], [491880.1419998469, 5457674.767896328], [491879.2239998472, 5457677.42889633], [491878.6189998477, 5457679.602896329], [491878.084547328, 5457682.185438964]]}}, {"type": "Feature", "properties": {"id": "sw-07", "chainStartM": 120.0, "chainEndM": 140.0, "crestEstimateM": 2.48, "crestMinM": 2.22, "crestMaxM": 2.6, "source": "shoreline-2002-derived", "validationStatus": "derived", "crestSource": "Estimated from DEM (LiDAR 2013, CGVD28)"}, "geometry": {"type": "LineString", "coordinates": [[491878.084547328, 5457682.185438964], [491877.92799984635, 5457682.941896331], [491877.77299984614, 5457684.071896331], [491877.8089998468, 5457684.593896332], [491879.408999847, 5457685.21689633], [491881.7049998464, 5457685.83989633], [491883.3569998463, 5457686.1678963285], [491884.93899984786, 5457686.56589633], [491886.5739998475, 5457687.08489633], [491888.208999847, 5457687.53489633], [491889.33899984794, 5457687.723896331], [491894.60899984767, 5457689.054896329], [491894.7627560244, 5457689.098224961]]}}, {"type": "Feature", "properties": {"id": "sw-08", "chainStartM": 140.0, "chainEndM": 160.0, "crestEstimateM": 1.3, "crestMinM": 0.75, "crestMaxM": 2.57, "source": "shoreline-2002-derived", "validationStatus": "derived", "crestSource": "Estimated from DEM (LiDAR 2013, CGVD28)"}, "geometry": {"type": "LineString", "coordinates": [[491894.7627560244, 5457689.098224961], [491898.29599984817, 5457690.0938963285], [491898.8169998474, 5457690.19689633], [491899.35699984815, 5457690.143896331], [491899.84299984726, 5457689.760896328], [491900.10299984756, 5457689.25689633], [491900.49999984715, 5457687.082896331], [491900.6209998469, 5457686.578896331], [491900.8459998481, 5457686.108896329], [491901.2799998483, 5457685.708896331], [491901.8009998481, 5457685.56889633], [491902.3929998481, 5457685.637896329], [491903.40199984825, 5457685.949896331], [491903.85399984807, 5457686.19189633], [491905.5929998481, 5457686.467896331], [491907.2099998478, 5457686.552896328], [491909.3129998468, 5457686.427896331], [491910.4779998469, 5457686.582896329], [491911.2815065923, 5457686.899680171]]}}, {"type": "Feature", "properties": {"id": "sw-09", "chainStartM": 160.0, "chainEndM": 180.0, "crestEstimateM": 1.76, "crestMinM": 1.26, "crestMaxM": 2.02, "source": "shoreline-2002-derived", "validationStatus": "derived", "crestSource": "Estimated from DEM (LiDAR 2013, CGVD28)"}, "geometry": {"type": "LineString", "coordinates": [[491911.2815065923, 5457686.899680171], [491912.3219998472, 5457687.30989633], [491913.33099984797, 5457687.830896332], [491915.69699984713, 5457688.730896332], [491916.1319998483, 5457689.0608963305], [491916.5149998477, 5457689.511896331], [491917.0929998468, 5457693.005896328], [491917.19899984833, 5457694.222896331], [491917.0279998483, 5457696.517896331], [491917.0129998467, 5457698.34289633], [491917.0849998481, 5457699.455896332], [491917.36499984807, 5457701.332896329], [491917.84796745697, 5457703.452869937]]}}, {"type": "Feature", "properties": {"id": "sw-10", "chainStartM": 180.0, "chainEndM": 200.0, "crestEstimateM": 2.76, "crestMinM": 1.98, "crestMaxM": 4.17, "source": "shoreline-2002-derived", "validationStatus": "derived", "crestSource": "Estimated from DEM (LiDAR 2013, CGVD28)"}, "geometry": {"type": "LineString", "coordinates": [[491917.84796745697, 5457703.452869937], [491918.02999984834, 5457704.251896328], [491918.1709998483, 5457705.955896331], [491919.0109998479, 5457709.813896328], [491919.4119998474, 5457711.012896328], [491919.86599984753, 5457712.019896329], [491920.92899984715, 5457713.913896329], [491922.7399998482, 5457716.066896332], [491923.41899984813, 5457716.98689633], [491924.18499984697, 5457717.716896331], [491924.61999984784, 5457717.976896332], [491925.00299984816, 5457718.32389633], [491925.2299998487, 5457718.861896331], [491925.4909998482, 5457719.33189633], [491925.96099984867, 5457719.660896331], [491926.4829998479, 5457719.903896332], [491927.0049998476, 5457720.00789633], [491927.14462099795, 5457720.0053461725]]}}, {"type": "Feature", "properties": {"id": "sw-11", "chainStartM": 200.0, "chainEndM": 220.0, "crestEstimateM": 4.15, "crestMinM": 3.95, "crestMaxM": 4.73, "source": "shoreline-2002-derived", "validationStatus": "derived", "crestSource": "Estimated from DEM (LiDAR 2013, CGVD28)"}, "geometry": {"type": "LineString", "coordinates": [[491927.14462099795, 5457720.0053461725], [491928.09999984823, 5457719.987896332], [491928.5349998472, 5457720.282896328], [491928.8669998484, 5457721.342896329], [491928.91999984847, 5457721.91689633], [491929.09399984864, 5457722.437896329], [491929.4769998487, 5457722.81989633], [491933.3559998488, 5457724.15289633], [491934.3469998487, 5457724.551896332], [491936.4179998472, 5457725.574896331], [491936.99099984753, 5457725.72989633], [491938.6609998474, 5457725.86689633], [491939.6689998478, 5457725.62189633], [491940.1899998484, 5457725.586896331], [491941.3029998488, 5457725.828896329], [491943.99899984885, 5457727.02489633], [491944.3184476372, 5457727.153791962]]}}, {"type": "Feature", "properties": {"id": "sw-12", "chainStartM": 220.0, "chainEndM": 240.0, "crestEstimateM": 3.95, "crestMinM": 3.85, "crestMaxM": 4.67, "source": "shoreline-2002-derived", "validationStatus": "derived", "crestSource": "Estimated from DEM (LiDAR 2013, CGVD28)"}, "geometry": {"type": "LineString", "coordinates": [[491944.3184476372, 5457727.153791962], [491946.57399984746, 5457728.063896329], [491949.82699984754, 5457729.25889633], [491951.5129998474, 5457729.725896329], [491953.0789998481, 5457730.036896332], [491952.9419998477, 5457732.262896332], [491952.99499984854, 5457734.711896329], [491953.1199998492, 5457735.00889633], [491953.57299984904, 5457735.39089633], [491954.1989998492, 5457735.528896331], [491956.54599984887, 5457735.682896328], [491958.6931516118, 5457735.9863058785]]}}, {"type": "Feature", "properties": {"id": "sw-13", "chainStartM": 240.0, "chainEndM": 260.0, "crestEstimateM": 5.03, "crestMinM": 3.57, "crestMaxM": 5.86, "source": "shoreline-2002-derived", "validationStatus": "derived", "crestSource": "Estimated from DEM (LiDAR 2013, CGVD28)"}, "geometry": {"type": "LineString", "coordinates": [[491958.6931516118, 5457735.9863058785], [491959.5889998484, 5457736.11289633], [491960.73699984915, 5457736.35489633], [491961.88399984775, 5457736.526896332], [491963.65799984906, 5457736.6288963305], [491964.2139998476, 5457736.558896331], [491964.525999848, 5457736.10589633], [491964.68099984777, 5457735.07989633], [491964.851999849, 5457732.958896331], [491964.9679998485, 5457728.142896331], [491964.89599984844, 5457726.33589633], [491965.01599984855, 5457725.06589633], [491965.37899984943, 5457723.96989633], [491966.4389998492, 5457723.638896329], [491966.91388430825, 5457723.376013861]]}}, {"type": "Feature", "properties": {"id": "sw-14", "chainStartM": 260.0, "chainEndM": 280.0, "crestEstimateM": 2.02, "crestMinM": 1.38, "crestMaxM": 3.67, "source": "shoreline-2002-derived", "validationStatus": "derived", "crestSource": "Estimated from DEM (LiDAR 2013, CGVD28)"}, "geometry": {"type": "LineString", "coordinates": [[491966.91388430825, 5457723.376013861], [491967.44699984824, 5457723.080896331], [491969.062999848, 5457722.643896331], [491969.549999848, 5457722.4348963285], [491969.6529998492, 5457721.912896328], [491970.6089998477, 5457721.33789633], [491970.83399984916, 5457720.868896329], [491971.23299984785, 5457720.39889633], [491971.77199984895, 5457720.136896328], [491972.29299984884, 5457720.03189633], [491973.45799984795, 5457720.151896332], [491974.0139998478, 5457720.116896331], [491975.2139998482, 5457720.305896331], [491975.7709998491, 5457720.513896328], [491976.64099984843, 5457721.31289633], [491978.34599984885, 5457721.97089633], [491978.8679998496, 5457722.07489633], [491979.35499984934, 5457722.28189633], [491979.6679998484, 5457722.73389633], [491980.2079998494, 5457723.098896329], [491981.8249998491, 5457723.356896331], [491982.2249998487, 5457723.720896329], [491982.277999848, 5457724.225896331], [491981.65299984923, 5457725.164896331], [491981.72399984876, 5457725.6858963305], [491981.7820619858, 5457725.793454059]]}}, {"type": "Feature", "properties": {"id": "sw-15", "chainStartM": 280.0, "chainEndM": 300.0, "crestEstimateM": 1.8, "crestMinM": 0.09, "crestMaxM": 2.41, "source": "shoreline-2002-derived", "validationStatus": "derived", "crestSource": "Estimated from DEM (LiDAR 2013, CGVD28)"}, "geometry": {"type": "LineString", "coordinates": [[491981.7820619858, 5457725.793454059], [491981.96799984865, 5457726.13789633], [491982.8029998484, 5457726.970896331], [491983.1339998495, 5457727.47489633], [491984.2659998481, 5457728.49889633], [491984.6839998495, 5457728.985896331], [491985.2239998483, 5457729.94089633], [491985.3639998488, 5457730.42789633], [491985.7119998484, 5457730.878896331], [491988.73999984976, 5457733.06489633], [491989.78399984835, 5457733.65489633], [491991.36699984863, 5457734.399896332], [491994.5669998496, 5457735.508896331], [491995.69799984817, 5457735.76789633], [491997.9373944152, 5457736.02498242]]}}, {"type": "Feature", "properties": {"id": "sw-16", "chainStartM": 300.0, "chainEndM": 320.0, "crestEstimateM": -1.22, "crestMinM": -1.8, "crestMaxM": 0.09, "source": "shoreline-2002-derived", "validationStatus": "derived", "crestSource": "Estimated from DEM (LiDAR 2013, CGVD28)"}, "geometry": {"type": "LineString", "coordinates": [[491997.9373944152, 5457736.02498242], [492000.1839998498, 5457736.28289633], [492000.7749998487, 5457736.246896332], [492002.8969998494, 5457736.869896332], [492003.38399985, 5457737.216896331], [492006.0459998493, 5457738.412896331], [492007.12399984896, 5457738.758896329], [492007.59399984975, 5457739.12389633], [492008.4639998499, 5457739.991896332], [492009.9099998493, 5457741.78089633], [492010.3269998502, 5457742.196896331], [492011.35399984964, 5457742.76889633], [492012.5889998487, 5457742.993896331], [492013.7709998502, 5457742.991896329], [492015.6955607824, 5457743.364279729]]}}, {"type": "Feature", "properties": {"id": "sw-17", "chainStartM": 320.0, "chainEndM": 340.0, "crestEstimateM": -1.68, "crestMinM": -1.8, "crestMaxM": -0.69, "source": "shoreline-2002-derived", "validationStatus": "derived", "crestSource": "Estimated from DEM (LiDAR 2013, CGVD28)"}, "geometry": {"type": "LineString", "coordinates": [[492015.6955607824, 5457743.364279729], [492016.53599984973, 5457743.5268963305], [492018.239999849, 5457744.184896331], [492018.8489998499, 5457744.375896331], [492020.63999984984, 5457744.5998963285], [492022.2579998499, 5457745.066896331], [492026.1699998498, 5457745.460896331], [492026.8129998489, 5457745.581896331], [492027.8049998492, 5457746.01489633], [492030.1359998495, 5457746.77689633], [492031.77099984896, 5457747.504896331], [492032.2919998495, 5457747.538896331], [492033.03999984893, 5457747.415896329], [492034.34299984993, 5457747.396896331], [492035.0295509078, 5457747.2813744275]]}}, {"type": "Feature", "properties": {"id": "sw-18", "chainStartM": 340.0, "chainEndM": 360.0, "crestEstimateM": 2.02, "crestMinM": -0.69, "crestMaxM": 3.14, "source": "shoreline-2002-derived", "validationStatus": "derived", "crestSource": "Estimated from DEM (LiDAR 2013, CGVD28)"}, "geometry": {"type": "LineString", "coordinates": [[492035.0295509078, 5457747.2813744275], [492036.2209998507, 5457747.08089633], [492036.7249998503, 5457747.06289633], [492037.94099984964, 5457746.817896331], [492038.51499985077, 5457746.83489633], [492039.0529998491, 5457745.808896329], [492039.4859998501, 5457744.851896331], [492040.0069998492, 5457744.60789633], [492040.4589998507, 5457744.154896329], [492040.9799998507, 5457743.80589633], [492042.03999985044, 5457743.613896332], [492043.2569998492, 5457743.507896329], [492044.28299985063, 5457743.697896329], [492044.71799984924, 5457743.99289633], [492045.25699984975, 5457744.078896329], [492046.3169998492, 5457743.537896329], [492047.201999851, 5457742.789896333], [492047.6709998496, 5457742.492896329], [492048.3319998496, 5457742.24889633], [492051.13099984947, 5457742.018896329], [492052.31199984933, 5457741.982896331], [492052.7210963456, 5457741.996001313]]}}, {"type": "Feature", "properties": {"id": "sw-19", "chainStartM": 360.0, "chainEndM": 380.0, "crestEstimateM": 1.9, "crestMinM": -1.41, "crestMaxM": 3.14, "source": "shoreline-2002-derived", "validationStatus": "derived", "crestSource": "Estimated from DEM (LiDAR 2013, CGVD28)"}, "geometry": {"type": "LineString", "coordinates": [[492052.7210963456, 5457741.996001313], [492054.902999851, 5457742.06589633], [492055.80699985084, 5457742.134896331], [492059.58099985, 5457742.841896331], [492062.41499985056, 5457743.44689633], [492063.4759998496, 5457743.775896333], [492066.0509998498, 5457745.05889633], [492066.79999985074, 5457745.94389633], [492066.6959998502, 5457746.465896331], [492067.0099998509, 5457746.91789633], [492067.4969998499, 5457747.055896331], [492068.0529998511, 5457746.915896331], [492068.885999851, 5457746.28889633], [492070.1559998512, 5457746.130896331], [492070.68858064344, 5457746.035147746]]}}, {"type": "Feature", "properties": {"id": "sw-20", "chainStartM": 380.0, "chainEndM": 400.0, "crestEstimateM": -0.63, "crestMinM": -1.1, "crestMaxM": 2.01, "source": "shoreline-2002-derived", "validationStatus": "derived", "crestSource": "Estimated from DEM (LiDAR 2013, CGVD28)"}, "geometry": {"type": "LineString", "coordinates": [[492070.68858064344, 5457746.035147746], [492073.37099985016, 5457745.552896329], [492075.38699985156, 5457744.993896331], [492077.76799985155, 5457744.763896329], [492078.30699985, 5457744.571896331], [492079.97599985095, 5457744.291896331], [492081.60999985086, 5457744.32489633], [492082.18399985123, 5457744.30589633], [492084.91199985053, 5457743.728896329], [492086.96299985104, 5457743.4128963305], [492088.05799984996, 5457743.08089633], [492090.356074142, 5457742.851431386]]}}, {"type": "Feature", "properties": {"id": "sw-21", "chainStartM": 400.0, "chainEndM": 420.0, "crestEstimateM": -0.29, "crestMinM": -0.83, "crestMaxM": 0.07, "source": "shoreline-2002-derived", "validationStatus": "derived", "crestSource": "Estimated from DEM (LiDAR 2013, CGVD28)"}, "geometry": {"type": "LineString", "coordinates": [[492090.356074142, 5457742.851431386], [492091.41299985175, 5457742.74589633], [492092.6129998513, 5457742.69289633], [492095.56799985183, 5457742.8618963305], [492097.5859998504, 5457743.519896331], [492098.21099985123, 5457743.275896331], [492098.5929998513, 5457742.89289633], [492099.14899985143, 5457742.68389633], [492100.4189998517, 5457742.62989633], [492102.06999985036, 5457742.47089633], [492104.3809998504, 5457742.032896331], [492108.17199985037, 5457742.027896329], [492109.9463909656, 5457741.966237951]]}}, {"type": "Feature", "properties": {"id": "sw-22", "chainStartM": 420.0, "chainEndM": 440.0, "crestEstimateM": -0.04, "crestMinM": -0.21, "crestMaxM": 0.39, "source": "shoreline-2002-derived", "validationStatus": "derived", "crestSource": "Estimated from DEM (LiDAR 2013, CGVD28)"}, "geometry": {"type": "LineString", "coordinates": [[492109.9463909656, 5457741.966237951], [492110.76199985115, 5457741.93789633], [492112.9349998519, 5457741.9868963305], [492115.7509998512, 5457741.87889633], [492117.4719998508, 5457741.64989633], [492119.17499985057, 5457741.26489633], [492121.5749998512, 5457741.50489633], [492122.86099985224, 5457741.329896331], [492124.0599998507, 5457740.858896332], [492124.4939998516, 5457740.597896329], [492125.0159998524, 5457740.42289633], [492127.2059998522, 5457740.45489633], [492129.6546792453, 5457740.737142865]]}}, {"type": "Feature", "properties": {"id": "sw-23", "chainStartM": 440.0, "chainEndM": 460.0, "crestEstimateM": -0.53, "crestMinM": -1.27, "crestMaxM": 0.3, "source": "shoreline-2002-derived", "validationStatus": "derived", "crestSource": "Estimated from DEM (LiDAR 2013, CGVD28)"}, "geometry": {"type": "LineString", "coordinates": [[492129.6546792453, 5457740.737142865], [492131.37899985234, 5457740.9358963305], [492134.28299985215, 5457741.01889633], [492135.7609998517, 5457741.13789633], [492145.6179998511, 5457741.072896331], [492147.7769998517, 5457741.551896331], [492149.41399985127, 5457741.85889633], [492149.55602328427, 5457741.856510718]]}}, {"type": "Feature", "properties": {"id": "sw-24", "chainStartM": 460.0, "chainEndM": 480.0, "crestEstimateM": -0.15, "crestMinM": -1.8, "crestMaxM": 3.85, "source": "shoreline-2002-derived", "validationStatus": "derived", "crestSource": "Estimated from DEM (LiDAR 2013, CGVD28)"}, "geometry": {"type": "LineString", "coordinates": [[492149.55602328427, 5457741.856510718], [492152.0929998518, 5457741.813896329], [492152.6139998528, 5457741.63789633], [492156.942999853, 5457740.83789633], [492159.63799985254, 5457740.636896331], [492160.7509998519, 5457740.492896331], [492162.8889998517, 5457739.806896329], [492163.35799985286, 5457739.61289633], [492165.28399985185, 5457738.440896329], [492165.7179998527, 5457738.142896327], [492166.13399985316, 5457737.723896331], [492166.7039998515, 5457736.695896329], [492167.0829998528, 5457735.7198963305], [492167.1734669235, 5457735.39333227]]}}, {"type": "Feature", "properties": {"id": "sw-25", "chainStartM": 480.0, "chainEndM": 500.0, "crestEstimateM": -1.8, "crestMinM": -1.8, "crestMaxM": -1.8, "source": "shoreline-2002-derived", "validationStatus": "derived", "crestSource": "Estimated from DEM (LiDAR 2013, CGVD28)"}, "geometry": {"type": "LineString", "coordinates": [[492167.1734669235, 5457735.39333227], [492167.820999852, 5457733.055896331], [492168.0539998515, 5457730.132896329], [492168.4349998521, 5457729.747896329], [492169.06099985243, 5457729.675896329], [492170.59199985303, 5457729.669896331], [492171.0779998516, 5457729.52889633], [492171.1789998516, 5457728.380896331], [492171.104999853, 5457727.267896329], [492170.87299985153, 5457725.6858963305], [492170.84699985204, 5457723.545896332], [492170.75599985226, 5457722.450896331], [492170.79999985243, 5457720.3108963305], [492170.6919998519, 5457719.231896331], [492170.7285398136, 5457718.129663366]]}}, {"type": "Feature", "properties": {"id": "sw-26", "chainStartM": 500.0, "chainEndM": 520.0, "crestEstimateM": -1.8, "crestMinM": -1.8, "crestMaxM": -1.8, "source": "shoreline-2002-derived", "validationStatus": "derived", "crestSource": "Estimated from DEM (LiDAR 2013, CGVD28)"}, "geometry": {"type": "LineString", "coordinates": [[492170.7285398136, 5457718.129663366], [492170.80099985277, 5457715.943896331], [492170.635999853, 5457713.769896329], [492170.42399985326, 5457712.726896332], [492170.34799985297, 5457711.126896329], [492170.35599985265, 5457708.848896332], [492170.1929998528, 5457702.377896329], [492170.0259998527, 5457699.716896331], [492170.169021891, 5457698.174165286]]}}, {"type": "Feature", "properties": {"id": "sw-27", "chainStartM": 520.0, "chainEndM": 540.0, "crestEstimateM": -1.8, "crestMinM": -1.8, "crestMaxM": -1.8, "source": "shoreline-2002-derived", "validationStatus": "derived", "crestSource": "Estimated from DEM (LiDAR 2013, CGVD28)"}, "geometry": {"type": "LineString", "coordinates": [[492170.169021891, 5457698.174165286], [492170.1759998533, 5457698.098896333], [492170.2379998517, 5457691.469896332], [492170.0649998521, 5457686.964896329], [492169.81299985165, 5457684.843896331], [492169.71199985273, 5457681.069896331], [492169.52638329274, 5457678.200364652]]}}, {"type": "Feature", "properties": {"id": "sw-28", "chainStartM": 540.0, "chainEndM": 560.0, "crestEstimateM": 4.2, "crestMinM": -1.8, "crestMaxM": 4.5, "source": "shoreline-2002-derived", "validationStatus": "derived", "crestSource": "Estimated from DEM (LiDAR 2013, CGVD28)"}, "geometry": {"type": "LineString", "coordinates": [[492169.52638329274, 5457678.200364652], [492169.37899985217, 5457675.921896331], [492169.3099998521, 5457671.58989633], [492170.3529998528, 5457671.237896331], [492171.34199985286, 5457670.625896332], [492172.243999852, 5457669.92689633], [492173.32099985203, 5457669.330896329], [492174.8659998517, 5457668.646896332], [492175.7859998524, 5457668.068896329], [492177.13899985206, 5457666.98489633], [492178.47499985294, 5457666.058896329], [492179.2549998517, 5457665.27289633], [492180.4834035495, 5457664.402298695]]}}, {"type": "Feature", "properties": {"id": "sw-29", "chainStartM": 560.0, "chainEndM": 580.0, "crestEstimateM": 3.94, "crestMinM": -0.82, "crestMaxM": 4.62, "source": "shoreline-2002-derived", "validationStatus": "derived", "crestSource": "Estimated from DEM (LiDAR 2013, CGVD28)"}, "geometry": {"type": "LineString", "coordinates": [[492180.4834035495, 5457664.402298695], [492180.53899985296, 5457664.362896331], [492181.8219998524, 5457663.279896331], [492182.75999985175, 5457662.788896331], [492183.29899985297, 5457662.665896331], [492183.63099985354, 5457663.06389633], [492183.4609998536, 5457664.073896332], [492183.58899985306, 5457665.6908963295], [492183.52299985284, 5457666.699896329], [492183.7719998518, 5457672.63189633], [492183.91699985333, 5457674.300896329], [492184.0579998526, 5457674.8568963315], [492184.2859998533, 5457675.325896329], [492185.29599985294, 5457675.425896329], [492187.5749998533, 5457675.434896329], [492188.03901619714, 5457675.434253351]]}}, {"type": "Feature", "properties": {"id": "sw-30", "chainStartM": 580.0, "chainEndM": 600.0, "crestEstimateM": -1.05, "crestMinM": -1.8, "crestMaxM": 1.45, "source": "shoreline-2002-derived", "validationStatus": "derived", "crestSource": "Estimated from DEM (LiDAR 2013, CGVD28)"}, "geometry": {"type": "LineString", "coordinates": [[492188.03901619714, 5457675.434253351], [492189.7399998529, 5457675.431896331], [492190.14999985194, 5457675.63389633], [492190.1349998524, 5457676.24289633], [492190.2239998533, 5457676.746896331], [492190.1959998519, 5457678.38289633], [492189.7179998523, 5457681.027896331], [492189.5329998535, 5457682.646896331], [492189.35199985205, 5457689.91889633], [492189.3248622701, 5457693.411890964]]}}, {"type": "Feature", "properties": {"id": "sw-31", "chainStartM": 600.0, "chainEndM": 620.0, "crestEstimateM": -1.8, "crestMinM": -1.8, "crestMaxM": -1.8, "source": "shoreline-2002-derived", "validationStatus": "derived", "crestSource": "Estimated from DEM (LiDAR 2013, CGVD28)"}, "geometry": {"type": "LineString", "coordinates": [[492189.3248622701, 5457693.411890964], [492189.3169998536, 5457694.42389633], [492189.4659998537, 5457697.17289633], [492189.5899998521, 5457697.74589633], [492190.1679998534, 5457698.665896329], [492190.32399985363, 5457703.118896333], [492190.2929998536, 5457704.127896329], [492189.96399985306, 5457704.598896329], [492189.4609998534, 5457704.895896331], [492188.9049998529, 5457705.1068963315], [492188.1419998535, 5457705.805896329], [492187.96999985236, 5457706.3278963305], [492188.33299985237, 5457710.36289633], [492188.5469998536, 5457711.54489633], [492188.6829998525, 5457711.94989633], [492188.6951603788, 5457712.028436872]]}}, {"type": "Feature", "properties": {"id": "sw-32", "chainStartM": 620.0, "chainEndM": 640.0, "crestEstimateM": -0.03, "crestMinM": -1.8, "crestMaxM": 1.3, "source": "shoreline-2002-derived", "validationStatus": "derived", "crestSource": "Estimated from DEM (LiDAR 2013, CGVD28)"}, "geometry": {"type": "LineString", "coordinates": [[492188.6951603788, 5457712.028436872], [492188.948999852, 5457713.6678963285], [492190.96799985215, 5457718.97289633], [492191.4869998535, 5457719.957896331], [492193.24599985225, 5457722.4348963285], [492199.26374682394, 5457728.456913225]]}}, {"type": "Feature", "properties": {"id": "sw-33", "chainStartM": 640.0, "chainEndM": 660.0, "crestEstimateM": 0.99, "crestMinM": 0.47, "crestMaxM": 1.41, "source": "shoreline-2002-derived", "validationStatus": "derived", "crestSource": "Estimated from DEM (LiDAR 2013, CGVD28)"}, "geometry": {"type": "LineString", "coordinates": [[492199.26374682394, 5457728.456913225], [492201.7019998536, 5457730.896896331], [492204.4089998521, 5457732.410896331], [492208.7899998544, 5457734.42389633], [492210.6369998533, 5457735.09189633], [492214.08999985334, 5457736.053896331], [492216.4449998536, 5457736.274896332], [492217.15838833485, 5457736.254830945]]}}, {"type": "Feature", "properties": {"id": "sw-34", "chainStartM": 660.0, "chainEndM": 680.0, "crestEstimateM": 1.38, "crestMinM": 0.59, "crestMaxM": 2.28, "source": "shoreline-2002-derived", "validationStatus": "derived", "crestSource": "Estimated from DEM (LiDAR 2013, CGVD28)"}, "geometry": {"type": "LineString", "coordinates": [[492217.15838833485, 5457736.254830945], [492218.1159998541, 5457736.227896329], [492225.98599985393, 5457734.973896331], [492228.26799985406, 5457734.512896333], [492230.3429998537, 5457733.848896331], [492233.02899985306, 5457732.770896332], [492235.1059998544, 5457732.243896331], [492236.6111413023, 5457731.975324689]]}}, {"type": "Feature", "properties": {"id": "sw-35", "chainStartM": 680.0, "chainEndM": 700.0, "crestEstimateM": 0.97, "crestMinM": 0.49, "crestMaxM": 1.88, "source": "shoreline-2002-derived", "validationStatus": "derived", "crestSource": "Estimated from DEM (LiDAR 2013, CGVD28)"}, "geometry": {"type": "LineString", "coordinates": [[492236.6111413023, 5457731.975324689], [492242.4979998532, 5457730.924896331], [492252.1319998549, 5457728.497896329], [492255.9976700181, 5457727.176877717]]}}, {"type": "Feature", "properties": {"id": "sw-36", "chainStartM": 700.0, "chainEndM": 720.0, "crestEstimateM": -0.33, "crestMinM": -0.69, "crestMaxM": 0.81, "source": "shoreline-2002-derived", "validationStatus": "derived", "crestSource": "Estimated from DEM (LiDAR 2013, CGVD28)"}, "geometry": {"type": "LineString", "coordinates": [[492255.9976700181, 5457727.176877717], [492256.4189998537, 5457727.032896329], [492259.95999985415, 5457726.254896329], [492261.7659998537, 5457726.002896328], [492266.26799985336, 5457725.831896329], [492268.07599985384, 5457725.919896331], [492269.10099985474, 5457726.116896331], [492273.97899985354, 5457726.11389633], [492275.8451632475, 5457726.017655833]]}}, {"type": "Feature", "properties": {"id": "sw-37", "chainStartM": 720.0, "chainEndM": 740.0, "crestEstimateM": 0.92, "crestMinM": -0.38, "crestMaxM": 1.1, "source": "shoreline-2002-derived", "validationStatus": "derived", "crestSource": "Estimated from DEM (LiDAR 2013, CGVD28)"}, "geometry": {"type": "LineString", "coordinates": [[492275.8451632475, 5457726.017655833], [492280.1839998546, 5457725.7938963305], [492286.391999855, 5457725.745896331], [492290.65599985514, 5457725.815896332], [492293.0079998544, 5457725.626896332], [492295.4599998549, 5457725.130896334], [492295.76990360953, 5457725.045733487]]}}, {"type": "Feature", "properties": {"id": "sw-38", "chainStartM": 740.0, "chainEndM": 760.0, "crestEstimateM": 0.89, "crestMinM": 0.77, "crestMaxM": 1.32, "source": "shoreline-2002-derived", "validationStatus": "derived", "crestSource": "Estimated from DEM (LiDAR 2013, CGVD28)"}, "geometry": {"type": "LineString", "coordinates": [[492295.76990360953, 5457725.045733487], [492298.5239998557, 5457724.28889633], [492299.54599985445, 5457724.212896329], [492303.1299998541, 5457724.491896331], [492306.02799985517, 5457724.29989633], [492314.418999855, 5457724.235896329], [492315.6461867902, 5457724.293599806]]}}, {"type": "Feature", "properties": {"id": "sw-39", "chainStartM": 760.0, "chainEndM": 780.0, "crestEstimateM": 0.86, "crestMinM": 0.63, "crestMaxM": 1.45, "source": "shoreline-2002-derived", "validationStatus": "derived", "crestSource": "Estimated from DEM (LiDAR 2013, CGVD28)"}, "geometry": {"type": "LineString", "coordinates": [[492315.6461867902, 5457724.293599806], [492317.5239998557, 5457724.381896331], [492320.0839998555, 5457724.669896331], [492324.66099985543, 5457725.452896331], [492329.0639998552, 5457725.794896332], [492334.1119998551, 5457725.755896331], [492335.5435865027, 5457725.6426592525]]}}, {"type": "Feature", "properties": {"id": "sw-40", "chainStartM": 780.0, "chainEndM": 800.0, "crestEstimateM": 1.35, "crestMinM": 0.53, "crestMaxM": 1.78, "source": "shoreline-2002-derived", "validationStatus": "derived", "crestSource": "Estimated from DEM (LiDAR 2013, CGVD28)"}, "geometry": {"type": "LineString", "coordinates": [[492335.5435865027, 5457725.6426592525], [492336.0209998556, 5457725.604896331], [492338.4399998551, 5457725.279896331], [492344.02299985534, 5457723.871896331], [492346.10199985665, 5457723.685896331], [492348.31999985484, 5457723.7028963305], [492355.3220718667, 5457724.163175028]]}}, {"type": "Feature", "properties": {"id": "sw-41", "chainStartM": 800.0, "chainEndM": 820.0, "crestEstimateM": 1.13, "crestMinM": 0.47, "crestMaxM": 2.07, "source": "shoreline-2002-derived", "validationStatus": "derived", "crestSource": "Estimated from DEM (LiDAR 2013, CGVD28)"}, "geometry": {"type": "LineString", "coordinates": [[492355.3220718667, 5457724.163175028], [492355.75899985636, 5457724.191896332], [492359.9199998569, 5457724.091896332], [492363.6699998566, 5457723.858896331], [492370.7589998558, 5457723.121896333], [492373.7939998556, 5457722.99689633], [492375.27176655823, 5457722.975943133]]}}, {"type": "Feature", "properties": {"id": "sw-42", "chainStartM": 820.0, "chainEndM": 840.0, "crestEstimateM": 2.12, "crestMinM": 1.03, "crestMaxM": 3.5, "source": "shoreline-2002-derived", "validationStatus": "derived", "crestSource": "Estimated from DEM (LiDAR 2013, CGVD28)"}, "geometry": {"type": "LineString", "coordinates": [[492375.27176655823, 5457722.975943133], [492379.0129998563, 5457722.92289633], [492382.5909998569, 5457722.519896332], [492384.5009998563, 5457722.504896331], [492386.0369998566, 5457722.59589633], [492387.91599985596, 5457723.024896329], [492389.6259998571, 5457723.625896331], [492391.57799985696, 5457724.667896331], [492393.0879998558, 5457725.747896331], [492394.28971321974, 5457726.466035285]]}}, {"type": "Feature", "properties": {"id": "sw-43", "chainStartM": 840.0, "chainEndM": 860.0, "crestEstimateM": 0.75, "crestMinM": 0.35, "crestMaxM": 3.4, "source": "shoreline-2002-derived", "validationStatus": "derived", "crestSource": "Estimated from DEM (LiDAR 2013, CGVD28)"}, "geometry": {"type": "LineString", "coordinates": [[492394.28971321974, 5457726.466035285], [492394.83499985735, 5457726.791896332], [492396.47899985703, 5457727.597896332], [492397.7439998572, 5457728.031896332], [492399.7249998563, 5457728.3568963315], [492402.2489998578, 5457728.405896332], [492406.64799985656, 5457728.13389633], [492406.782999857, 5457727.99689633], [492407.25599985727, 5457728.28189633], [492407.20199985715, 5457730.419896331], [492407.1979998572, 5457730.587896329], [492411.4030375968, 5457730.667190866]]}}, {"type": "Feature", "properties": {"id": "sw-44", "chainStartM": 860.0, "chainEndM": 880.0, "crestEstimateM": 3.46, "crestMinM": 3.4, "crestMaxM": 3.51, "source": "shoreline-2002-derived", "validationStatus": "derived", "crestSource": "Estimated from DEM (LiDAR 2013, CGVD28)"}, "geometry": {"type": "LineString", "coordinates": [[492411.4030375968, 5457730.667190866], [492412.3949998562, 5457730.6858963305], [492431.402833023, 5457730.718652696]]}}, {"type": "Feature", "properties": {"id": "sw-45", "chainStartM": 880.0, "chainEndM": 900.0, "crestEstimateM": 3.47, "crestMinM": 3.45, "crestMaxM": 3.5, "source": "shoreline-2002-derived", "validationStatus": "derived", "crestSource": "Estimated from DEM (LiDAR 2013, CGVD28)"}, "geometry": {"type": "LineString", "coordinates": [[492431.402833023, 5457730.718652696], [492437.34699985804, 5457730.728896331], [492451.4027912666, 5457730.698470808]]}}, {"type": "Feature", "properties": {"id": "sw-46", "chainStartM": 900.0, "chainEndM": 920.0, "crestEstimateM": 3.48, "crestMinM": 3.45, "crestMaxM": 3.5, "source": "shoreline-2002-derived", "validationStatus": "derived", "crestSource": "Estimated from DEM (LiDAR 2013, CGVD28)"}, "geometry": {"type": "LineString", "coordinates": [[492451.4027912666, 5457730.698470808], [492454.90199985716, 5457730.690896331], [492471.4026596952, 5457730.627087988]]}}, {"type": "Feature", "properties": {"id": "sw-47", "chainStartM": 920.0, "chainEndM": 940.0, "crestEstimateM": 3.57, "crestMinM": 3.46, "crestMaxM": 3.58, "source": "shoreline-2002-derived", "validationStatus": "derived", "crestSource": "Estimated from DEM (LiDAR 2013, CGVD28)"}, "geometry": {"type": "LineString", "coordinates": [[492471.4026596952, 5457730.627087988], [492473.52099985775, 5457730.618896329], [492473.53999985766, 5457739.0428963285], [492480.1879998585, 5457738.93889633], [492480.15418568085, 5457736.130290732]]}}, {"type": "Feature", "properties": {"id": "sw-48", "chainStartM": 940.0, "chainEndM": 960.0, "crestEstimateM": 3.46, "crestMinM": 3.43, "crestMaxM": 3.58, "source": "shoreline-2002-derived", "validationStatus": "derived", "crestSource": "Estimated from DEM (LiDAR 2013, CGVD28)"}, "geometry": {"type": "LineString", "coordinates": [[492480.15418568085, 5457736.130290732], [492480.08799985854, 5457730.632896331], [492482.4949998574, 5457730.69789633], [492490.8769998591, 5457730.57789633], [492494.57674674504, 5457730.8726643855]]}}, {"type": "Feature", "properties": {"id": "sw-49", "chainStartM": 960.0, "chainEndM": 980.0, "crestEstimateM": 3.51, "crestMinM": 3.45, "crestMaxM": 3.56, "source": "shoreline-2002-derived", "validationStatus": "derived", "crestSource": "Estimated from DEM (LiDAR 2013, CGVD28)"}, "geometry": {"type": "LineString", "coordinates": [[492494.57674674504, 5457730.8726643855], [492497.2279998581, 5457731.08389633], [492499.6449998593, 5457731.62489633], [492502.0239998582, 5457732.56389633], [492504.47299985937, 5457733.923896329], [492507.19899985875, 5457736.24489633], [492509.75999985886, 5457739.069896331], [492510.891532055, 5457740.8524387395]]}}, {"type": "Feature", "properties": {"id": "sw-50", "chainStartM": 980.0, "chainEndM": 1000.0, "crestEstimateM": 3.52, "crestMinM": 3.49, "crestMaxM": 3.54, "source": "shoreline-2002-derived", "validationStatus": "derived", "crestSource": "Estimated from DEM (LiDAR 2013, CGVD28)"}, "geometry": {"type": "LineString", "coordinates": [[492510.891532055, 5457740.8524387395], [492511.624999859, 5457742.00789633], [492512.4109998583, 5457743.5488963295], [492513.31299985887, 5457746.41789633], [492513.666999859, 5457747.987896332], [492513.534999858, 5457754.080896331], [492513.5573110779, 5457760.271085508]]}}, {"type": "Feature", "properties": {"id": "sw-51", "chainStartM": 1000.0, "chainEndM": 1015.0, "crestEstimateM": 3.53, "crestMinM": 3.51, "crestMaxM": 3.54, "source": "shoreline-2002-derived", "validationStatus": "derived", "crestSource": "Estimated from DEM (LiDAR 2013, CGVD28)"}, "geometry": {"type": "LineString", "coordinates": [[492513.5573110779, 5457760.271085508], [492513.6109998589, 5457775.166896332], [492513.6107493659, 5457775.270988452]]}}]}