{"type":"FeatureCollection","features":[{"type":"Feature","geometry":{"coordinates":[-123.11228887249476,49.268932692566786],"type":"Point"},"properties":{"width":"66","geo_point_2d":{"lon":-123.11228887249476,"lat":49.268932692566786}}},{"type":"Feature","geometry":{"coordinates":[-123.10889101375973,49.269319419001896],"type":"Point"},"properties":{"width":"104","geo_point_2d":{"lon":-123.10889101375973,"lat":49.269319419001896}}},{"type":"Feature","geometry":{"coordinates":[-123.10672657786873,49.26977228678741],"type":"Point"},"properties":{"width":"20","geo_point_2d":{"lon":-123.10672657786873,"lat":49.26977228678741}}},{"type":"Feature","geometry":{"coordinates":[-123.11512947555549,49.27039123877124],"type":"Point"},"properties":{"width":"27.43(m)","geo_point_2d":{"lon":-123.11512947555549,"lat":49.27039123877124}}},{"type":"Feature","geometry":{"coordinates":[-123.11011310677031,49.26915267722339],"type":"Point"},"properties":{"width":"66","geo_point_2d":{"lon":-123.11011310677031,"lat":49.26915267722339}}},{"type":"Feature","geometry":{"coordinates":[-123.10934625948343,49.270158546745435],"type":"Point"},"properties":{"width":"33","geo_point_2d":{"lon":-123.10934625948343,"lat":49.270158546745435}}},{"type":"Feature","geometry":{"coordinates":[-123.1092076466407,49.26981886631508],"type":"Point"},"properties":{"width":"20","geo_point_2d":{"lon":-123.1092076466407,"lat":49.26981886631508}}},{"type":"Feature","geometry":{"coordinates":[-123.10638088018361,49.269770023964156],"type":"Point"},"properties":{"width":"20","geo_point_2d":{"lon":-123.10638088018361,"lat":49.269770023964156}}},{"type":"Feature","geometry":{"coordinates":[-123.11401485498385,49.273827572243334],"type":"Point"},"properties":{"width":"17m","geo_point_2d":{"lon":-123.11401485498385,"lat":49.273827572243334}}},{"type":"Feature","geometry":{"coordinates":[-123.10471351504484,49.27153495607424],"type":"Point"},"properties":{"width":"20m","geo_point_2d":{"lon":-123.10471351504484,"lat":49.27153495607424}}},{"type":"Feature","geometry":{"coordinates":[-123.10480690703086,49.270189846941435],"type":"Point"},"properties":{"width":"70.27","geo_point_2d":{"lon":-123.10480690703086,"lat":49.270189846941435}}},{"type":"Feature","geometry":{"coordinates":[-123.10635452252461,49.27022129223531],"type":"Point"},"properties":{"width":"74.2","geo_point_2d":{"lon":-123.10635452252461,"lat":49.27022129223531}}},{"type":"Feature","geometry":{"coordinates":[-123.10444117205463,49.269735470953016],"type":"Point"},"properties":{"width":"20","geo_point_2d":{"lon":-123.10444117205463,"lat":49.269735470953016}}},{"type":"Feature","geometry":{"coordinates":[-123.10948166364386,49.2701593180454],"type":"Point"},"properties":{"width":"33","geo_point_2d":{"lon":-123.10948166364386,"lat":49.2701593180454}}},{"type":"Feature","geometry":{"coordinates":[-123.1151812643311,49.270322823668806],"type":"Point"},"properties":{"width":"17(m)","geo_point_2d":{"lon":-123.1151812643311,"lat":49.270322823668806}}},{"type":"Feature","geometry":{"coordinates":[-123.11269072420126,49.274417777310774],"type":"Point"},"properties":{"width":"17m","geo_point_2d":{"lon":-123.11269072420126,"lat":49.274417777310774}}},{"type":"Feature","geometry":{"coordinates":[-123.10386468613159,49.270171178183034],"type":"Point"},"properties":{"width":"85.03","geo_point_2d":{"lon":-123.10386468613159,"lat":49.270171178183034}}},{"type":"Feature","geometry":{"coordinates":[-123.10934564844902,49.27174800720879],"type":"Point"},"properties":{"width":"18m","geo_point_2d":{"lon":-123.10934564844902,"lat":49.27174800720879}}},{"type":"Feature","geometry":{"coordinates":[-123.10664156640458,49.27144765739008],"type":"Point"},"properties":{"width":"18m","geo_point_2d":{"lon":-123.10664156640458,"lat":49.27144765739008}}},{"type":"Feature","geometry":{"coordinates":[-123.10456931848367,49.271649127724906],"type":"Point"},"properties":{"width":"15m","geo_point_2d":{"lon":-123.10456931848367,"lat":49.271649127724906}}},{"type":"Feature","geometry":{"coordinates":[-123.10473988939971,49.27089587760588],"type":"Point"},"properties":{"width":"12m","geo_point_2d":{"lon":-123.10473988939971,"lat":49.27089587760588}}},{"type":"Feature","geometry":{"coordinates":[-123.10665557858455,49.271009614486154],"type":"Point"},"properties":{"width":"18m","geo_point_2d":{"lon":-123.10665557858455,"lat":49.271009614486154}}},{"type":"Feature","geometry":{"coordinates":[-123.1061035490866,49.27034106012752],"type":"Point"},"properties":{"width":"12m","geo_point_2d":{"lon":-123.1061035490866,"lat":49.27034106012752}}},{"type":"Feature","geometry":{"coordinates":[-123.10461109398821,49.270556353720785],"type":"Point"},"properties":{"width":"15m","geo_point_2d":{"lon":-123.10461109398821,"lat":49.270556353720785}}},{"type":"Feature","geometry":{"coordinates":[-123.11255401525368,49.26894223035998],"type":"Point"},"properties":{"width":"70.27","geo_point_2d":{"lon":-123.11255401525368,"lat":49.26894223035998}}},{"type":"Feature","geometry":{"coordinates":[-123.10690750016617,49.270239833741975],"type":"Point"},"properties":{"width":"87.33","geo_point_2d":{"lon":-123.10690750016617,"lat":49.270239833741975}}},{"type":"Feature","geometry":{"coordinates":[-123.10439805485328,49.27018084408069],"type":"Point"},"properties":{"width":"85.03","geo_point_2d":{"lon":-123.10439805485328,"lat":49.27018084408069}}},{"type":"Feature","geometry":{"coordinates":[-123.10483950068783,49.269243099940546],"type":"Point"},"properties":{"width":"104","geo_point_2d":{"lon":-123.10483950068783,"lat":49.269243099940546}}},{"type":"Feature","geometry":{"coordinates":[-123.10973161292065,49.26914181414928],"type":"Point"},"properties":{"width":"104","geo_point_2d":{"lon":-123.10973161292065,"lat":49.26914181414928}}},{"type":"Feature","geometry":{"coordinates":[-123.10444348550074,49.26923598357909],"type":"Point"},"properties":{"width":"99","geo_point_2d":{"lon":-123.10444348550074,"lat":49.26923598357909}}},{"type":"Feature","geometry":{"coordinates":[-123.10462673110598,49.26939622914095],"type":"Point"},"properties":{"width":"66","geo_point_2d":{"lon":-123.10462673110598,"lat":49.26939622914095}}},{"type":"Feature","geometry":{"coordinates":[-123.1105540048091,49.2693634634414],"type":"Point"},"properties":{"width":"20","geo_point_2d":{"lon":-123.1105540048091,"lat":49.2693634634414}}},{"type":"Feature","geometry":{"coordinates":[-123.11027635270402,49.269305295967335],"type":"Point"},"properties":{"width":"66","geo_point_2d":{"lon":-123.11027635270402,"lat":49.269305295967335}}},{"type":"Feature","geometry":{"coordinates":[-123.10480710875265,49.269739979017444],"type":"Point"},"properties":{"width":"20","geo_point_2d":{"lon":-123.10480710875265,"lat":49.269739979017444}}},{"type":"Feature","geometry":{"coordinates":[-123.10655398081475,49.26973488214347],"type":"Point"},"properties":{"width":"66","geo_point_2d":{"lon":-123.10655398081475,"lat":49.26973488214347}}},{"type":"Feature","geometry":{"coordinates":[-123.11064281110055,49.269876212594525],"type":"Point"},"properties":{"width":"73.22","geo_point_2d":{"lon":-123.11064281110055,"lat":49.269876212594525}}},{"type":"Feature","geometry":{"coordinates":[-123.1127793729767,49.27470298223824],"type":"Point"},"properties":{"width":"20m","geo_point_2d":{"lon":-123.1127793729767,"lat":49.27470298223824}}},{"type":"Feature","geometry":{"coordinates":[-123.10379266864125,49.27017124289804],"type":"Point"},"properties":{"width":"82.4","geo_point_2d":{"lon":-123.10379266864125,"lat":49.27017124289804}}},{"type":"Feature","geometry":{"coordinates":[-123.10919020846472,49.27162163680723],"type":"Point"},"properties":{"width":"20m","geo_point_2d":{"lon":-123.10919020846472,"lat":49.27162163680723}}},{"type":"Feature","geometry":{"coordinates":[-123.10922483457988,49.27098552692226],"type":"Point"},"properties":{"width":"12m","geo_point_2d":{"lon":-123.10922483457988,"lat":49.27098552692226}}},{"type":"Feature","geometry":{"coordinates":[-123.10604822959915,49.27142961941038],"type":"Point"},"properties":{"width":"12m","geo_point_2d":{"lon":-123.10604822959915,"lat":49.27142961941038}}},{"type":"Feature","geometry":{"coordinates":[-123.10941081019405,49.2703998087493],"type":"Point"},"properties":{"width":"18m","geo_point_2d":{"lon":-123.10941081019405,"lat":49.2703998087493}}},{"type":"Feature","geometry":{"coordinates":[-123.10919200223933,49.27027307553385],"type":"Point"},"properties":{"width":"70.27","geo_point_2d":{"lon":-123.10919200223933,"lat":49.27027307553385}}},{"type":"Feature","geometry":{"coordinates":[-123.10666543130827,49.270861274633184],"type":"Point"},"properties":{"width":"18.012m","geo_point_2d":{"lon":-123.10666543130827,"lat":49.270861274633184}}},{"type":"Feature","geometry":{"coordinates":[-123.10668291506543,49.27037585977751],"type":"Point"},"properties":{"width":"18.012m","geo_point_2d":{"lon":-123.10668291506543,"lat":49.27037585977751}}},{"type":"Feature","geometry":{"coordinates":[-123.10957782167895,49.270277999458266],"type":"Point"},"properties":{"width":"73.22","geo_point_2d":{"lon":-123.10957782167895,"lat":49.270277999458266}}},{"type":"Feature","geometry":{"coordinates":[-123.11213685321415,49.269150532983794],"type":"Point"},"properties":{"width":"73.22","geo_point_2d":{"lon":-123.11213685321415,"lat":49.269150532983794}}},{"type":"Feature","geometry":{"coordinates":[-123.10637360548218,49.26927636526989],"type":"Point"},"properties":{"width":"104","geo_point_2d":{"lon":-123.10637360548218,"lat":49.26927636526989}}},{"type":"Feature","geometry":{"coordinates":[-123.10677431827642,49.26928153670784],"type":"Point"},"properties":{"width":"104","geo_point_2d":{"lon":-123.10677431827642,"lat":49.26928153670784}}},{"type":"Feature","geometry":{"coordinates":[-123.10460296670925,49.270067265318026],"type":"Point"},"properties":{"width":"76","geo_point_2d":{"lon":-123.10460296670925,"lat":49.270067265318026}}},{"type":"Feature","geometry":{"coordinates":[-123.10332822624474,49.2713996831388],"type":"Point"},"properties":{"width":"20m","geo_point_2d":{"lon":-123.10332822624474,"lat":49.2713996831388}}},{"type":"Feature","geometry":{"coordinates":[-123.10750724068669,49.27025065619986],"type":"Point"},"properties":{"width":"83.39","geo_point_2d":{"lon":-123.10750724068669,"lat":49.27025065619986}}}]}