{"type":"FeatureCollection","features":[{"type":"Feature","geometry":{"coordinates":[-123.10459786335372,49.270189181825444],"type":"Point"},"properties":{"at_street":"184","on_street":"638","xstreet":"W 1ST AV AND E 1ST AV","geo_local_area":"Mount Pleasant","geo_point_2d":{"lon":-123.10459786335372,"lat":49.270189181825444}}},{"type":"Feature","geometry":{"coordinates":[-123.10941867795283,49.269295559989494],"type":"Point"},"properties":{"at_street":"179","on_street":"640","xstreet":"W 2ND AV AND COLUMBIA ST","geo_local_area":"Mount Pleasant","geo_point_2d":{"lon":-123.10941867795283,"lat":49.269295559989494}}},{"type":"Feature","geometry":{"coordinates":[-123.11081755211605,49.26979519630888],"type":"Point"},"properties":{"at_street":"175","on_street":"638","xstreet":"W 1ST AV AND COOK ST","geo_local_area":"Mount Pleasant","geo_point_2d":{"lon":-123.11081755211605,"lat":49.26979519630888}}},{"type":"Feature","geometry":{"coordinates":[-123.11248619022278,49.27451591622779],"type":"Point"},"properties":{"at_street":"167","on_street":"604","xstreet":"SMITHE ST AND COOPERAGE WAY","geo_local_area":"Downtown","geo_point_2d":{"lon":-123.11248619022278,"lat":49.27451591622779}}},{"type":"Feature","geometry":{"coordinates":[-123.11486151852314,49.27386841741678],"type":"Point"},"properties":{"at_street":"167","on_street":"606","xstreet":"COOPERAGE WAY AND MARINASIDE CRESCENT","geo_local_area":"Downtown","geo_point_2d":{"lon":-123.11486151852314,"lat":49.27386841741678}}},{"type":"Feature","geometry":{"coordinates":[-123.10463357800872,49.2701898331238],"type":"Point"},"properties":{"at_street":"184","on_street":"638","xstreet":"ONTARIO ST AND W 1ST AV","geo_local_area":"Mount Pleasant","geo_point_2d":{"lon":-123.10463357800872,"lat":49.2701898331238}}},{"type":"Feature","geometry":{"coordinates":[-123.10938076020607,49.2709842280358],"type":"Point"},"properties":{"at_street":"179","on_street":"636","xstreet":"COLUMBIA ST AND WALTER HARDWICK AV","geo_local_area":"Mount Pleasant","geo_point_2d":{"lon":-123.10938076020607,"lat":49.2709842280358}}},{"type":"Feature","geometry":{"coordinates":[-123.10663700549631,49.27156386151088],"type":"Point"},"properties":{"at_street":"182","on_street":"634","xstreet":"ATHLETES WAY AND MANITOBA ST","geo_local_area":"Mount Pleasant","geo_point_2d":{"lon":-123.10663700549631,"lat":49.27156386151088}}},{"type":"Feature","geometry":{"coordinates":[-123.10457655079233,49.27152625583243],"type":"Point"},"properties":{"at_street":"184","on_street":"634","xstreet":"ONTARIO ST AND ATHLETES WAY","geo_local_area":"Mount Pleasant","geo_point_2d":{"lon":-123.10457655079233,"lat":49.27152625583243}}},{"type":"Feature","geometry":{"coordinates":[-123.10607316802971,49.270923913690616],"type":"Point"},"properties":{"at_street":"183","on_street":"636","xstreet":"SALT ST AND WALTER HARDWICK AV","geo_local_area":"Mount Pleasant","geo_point_2d":{"lon":-123.10607316802971,"lat":49.270923913690616}}},{"type":"Feature","geometry":{"coordinates":[-123.10604634975732,49.271553089163575],"type":"Point"},"properties":{"at_street":"183","on_street":"634","xstreet":"ATHLETES WAY AND SALT ST","geo_local_area":"Mount Pleasant","geo_point_2d":{"lon":-123.10604634975732,"lat":49.271553089163575}}},{"type":"Feature","geometry":{"coordinates":[-123.11516656053134,49.27102769283563],"type":"Point"},"properties":{"at_street":"169","on_street":"633","xstreet":"SPYGLASS PLACE AND UNNAMED ST","geo_local_area":"Fairview","geo_point_2d":{"lon":-123.11516656053134,"lat":49.27102769283563}}},{"type":"Feature","geometry":{"coordinates":[-123.10657259041928,49.269274041049925],"type":"Point"},"properties":{"at_street":"182","on_street":"640","xstreet":"W 2ND AV AND MANITOBA ST","geo_local_area":"Mount Pleasant","geo_point_2d":{"lon":-123.10657259041928,"lat":49.269274041049925}}},{"type":"Feature","geometry":{"coordinates":[-123.10941085493423,49.27027706926314],"type":"Point"},"properties":{"at_street":"179","on_street":"638","xstreet":"W 1ST AV AND COLUMBIA ST","geo_local_area":"Mount Pleasant","geo_point_2d":{"lon":-123.10941085493423,"lat":49.27027706926314}}},{"type":"Feature","geometry":{"coordinates":[-123.10460338776214,49.27089708968032],"type":"Point"},"properties":{"at_street":"184","on_street":"636","xstreet":"ONTARIO ST AND WALTER HARDWICK AV","geo_local_area":"Mount Pleasant","geo_point_2d":{"lon":-123.10460338776214,"lat":49.27089708968032}}},{"type":"Feature","geometry":{"coordinates":[-123.106663816282,49.27093469490235],"type":"Point"},"properties":{"at_street":"182","on_street":"636","xstreet":"MANITOBA ST AND WALTER HARDWICK AV","geo_local_area":"Mount Pleasant","geo_point_2d":{"lon":-123.106663816282,"lat":49.27093469490235}}},{"type":"Feature","geometry":{"coordinates":[-123.11500145644803,49.27412373262857],"type":"Point"},"properties":{"at_street":"165","on_street":"606","xstreet":"NELSON ST AND PACIFIC BOULEVARD","geo_local_area":"Downtown","geo_point_2d":{"lon":-123.11500145644803,"lat":49.27412373262857}}},{"type":"Feature","geometry":{"coordinates":[-123.10463703920081,49.26923948749423],"type":"Point"},"properties":{"at_street":"184","on_street":"640","xstreet":"E 2ND AV AND W 2ND AV","geo_local_area":"Mount Pleasant","geo_point_2d":{"lon":-123.10463703920081,"lat":49.26923948749423}}},{"type":"Feature","geometry":{"coordinates":[-123.10996427343848,49.26902734495427],"type":"Point"},"properties":{"at_street":"175","on_street":"640","xstreet":"COOK ST AND W 2ND AV","geo_local_area":"Mount Pleasant","geo_point_2d":{"lon":-123.10996427343848,"lat":49.26902734495427}}},{"type":"Feature","geometry":{"coordinates":[-123.1065339208801,49.27022457212675],"type":"Point"},"properties":{"at_street":"182","on_street":"638","xstreet":"MANITOBA ST AND W 1ST AV","geo_local_area":"Mount Pleasant","geo_point_2d":{"lon":-123.1065339208801,"lat":49.27022457212675}}},{"type":"Feature","geometry":{"coordinates":[-123.11238183121476,49.26902680889656],"type":"Point"},"properties":{"at_street":"172","on_street":"638","xstreet":"CROWE ST AND W 1ST AV","geo_local_area":"Mount Pleasant","geo_point_2d":{"lon":-123.11238183121476,"lat":49.26902680889656}}},{"type":"Feature","geometry":{"coordinates":[-123.1066939359727,49.27022749184154],"type":"Point"},"properties":{"at_street":"182","on_street":"638","xstreet":"W 1ST AV AND MANITOBA ST","geo_local_area":"Mount Pleasant","geo_point_2d":{"lon":-123.1066939359727,"lat":49.27022749184154}}},{"type":"Feature","geometry":{"coordinates":[-123.10935399769465,49.27161339523193],"type":"Point"},"properties":{"at_street":"179","on_street":"634","xstreet":"ATHLETES WAY AND COLUMBIA ST","geo_local_area":"Mount Pleasant","geo_point_2d":{"lon":-123.10935399769465,"lat":49.27161339523193}}},{"type":"Feature","geometry":{"coordinates":[-123.10610330988428,49.27021670176887],"type":"Point"},"properties":{"at_street":"183","on_street":"638","xstreet":"W 1ST AV AND SALT ST","geo_local_area":"Mount Pleasant","geo_point_2d":{"lon":-123.10610330988428,"lat":49.27021670176887}}}]}